<?xml version="1.0" encoding="UTF-8"?>
<ndm xmlns:xsi="http://www.w3.org/2001/XMLSchema-instance" xsi:noNamespaceSchemaLocation="https://sanaregistry.org/r/ndmxml_unqualified/ndmxml-2.0.0-master-2.0.xsd">
<omm id="CCSDS_OMM_VERS" version="2.0">
<header><CREATION_DATE/><ORIGINATOR/></header><body><segment><metadata><OBJECT_NAME>IRIDIUM 921</OBJECT_NAME><OBJECT_ID>1997-034E</OBJECT_ID><CENTER_NAME>EARTH</CENTER_NAME><REF_FRAME>TEME</REF_FRAME><TIME_SYSTEM>UTC</TIME_SYSTEM><MEAN_ELEMENT_THEORY>SGP4</MEAN_ELEMENT_THEORY></metadata><data><meanElements><EPOCH>2024-06-23T19:39:25.020576</EPOCH><MEAN_MOTION>15.39851503</MEAN_MOTION><ECCENTRICITY>.000414</ECCENTRICITY><INCLINATION>86.3815</INCLINATION><RA_OF_ASC_NODE>284.8289</RA_OF_ASC_NODE><ARG_OF_PERICENTER>197.8336</ARG_OF_PERICENTER><MEAN_ANOMALY>162.2773</MEAN_ANOMALY></meanElements><tleParameters><EPHEMERIS_TYPE>0</EPHEMERIS_TYPE><CLASSIFICATION_TYPE>U</CLASSIFICATION_TYPE><NORAD_CAT_ID>24873</NORAD_CAT_ID><ELEMENT_SET_NO>999</ELEMENT_SET_NO><REV_AT_EPOCH>47620</REV_AT_EPOCH><BSTAR>.71067E-3</BSTAR><MEAN_MOTION_DOT>.28301E-3</MEAN_MOTION_DOT><MEAN_MOTION_DDOT>0</MEAN_MOTION_DDOT></tleParameters></data></segment></body></omm>
<omm id="CCSDS_OMM_VERS" version="2.0">
<header><CREATION_DATE/><ORIGINATOR/></header><body><segment><metadata><OBJECT_NAME>IRIDIUM 26</OBJECT_NAME><OBJECT_ID>1997-043A</OBJECT_ID><CENTER_NAME>EARTH</CENTER_NAME><REF_FRAME>TEME</REF_FRAME><TIME_SYSTEM>UTC</TIME_SYSTEM><MEAN_ELEMENT_THEORY>SGP4</MEAN_ELEMENT_THEORY></metadata><data><meanElements><EPOCH>2024-06-24T05:24:35.396352</EPOCH><MEAN_MOTION>14.36409365</MEAN_MOTION><ECCENTRICITY>.0002164</ECCENTRICITY><INCLINATION>86.3956</INCLINATION><RA_OF_ASC_NODE>260.8008</RA_OF_ASC_NODE><ARG_OF_PERICENTER>99.8644</ARG_OF_PERICENTER><MEAN_ANOMALY>260.2798</MEAN_ANOMALY></meanElements><tleParameters><EPHEMERIS_TYPE>0</EPHEMERIS_TYPE><CLASSIFICATION_TYPE>U</CLASSIFICATION_TYPE><NORAD_CAT_ID>24903</NORAD_CAT_ID><ELEMENT_SET_NO>999</ELEMENT_SET_NO><REV_AT_EPOCH>40581</REV_AT_EPOCH><BSTAR>.15085E-3</BSTAR><MEAN_MOTION_DOT>.461E-5</MEAN_MOTION_DOT><MEAN_MOTION_DDOT>0</MEAN_MOTION_DDOT></tleParameters></data></segment></body></omm>
<omm id="CCSDS_OMM_VERS" version="2.0">
<header><CREATION_DATE/><ORIGINATOR/></header><body><segment><metadata><OBJECT_NAME>IRIDIUM 22</OBJECT_NAME><OBJECT_ID>1997-043E</OBJECT_ID><CENTER_NAME>EARTH</CENTER_NAME><REF_FRAME>TEME</REF_FRAME><TIME_SYSTEM>UTC</TIME_SYSTEM><MEAN_ELEMENT_THEORY>SGP4</MEAN_ELEMENT_THEORY></metadata><data><meanElements><EPOCH>2024-06-23T19:09:51.097248</EPOCH><MEAN_MOTION>14.35297206</MEAN_MOTION><ECCENTRICITY>.0002207</ECCENTRICITY><INCLINATION>86.3959</INCLINATION><RA_OF_ASC_NODE>264.2228</RA_OF_ASC_NODE><ARG_OF_PERICENTER>93.8431</ARG_OF_PERICENTER><MEAN_ANOMALY>266.3017</MEAN_ANOMALY></meanElements><tleParameters><EPHEMERIS_TYPE>0</EPHEMERIS_TYPE><CLASSIFICATION_TYPE>U</CLASSIFICATION_TYPE><NORAD_CAT_ID>24907</NORAD_CAT_ID><ELEMENT_SET_NO>999</ELEMENT_SET_NO><REV_AT_EPOCH>40535</REV_AT_EPOCH><BSTAR>.15581E-3</BSTAR><MEAN_MOTION_DOT>.466E-5</MEAN_MOTION_DOT><MEAN_MOTION_DDOT>0</MEAN_MOTION_DDOT></tleParameters></data></segment></body></omm>
<omm id="CCSDS_OMM_VERS" version="2.0">
<header><CREATION_DATE/><ORIGINATOR/></header><body><segment><metadata><OBJECT_NAME>DUMMY MASS 1</OBJECT_NAME><OBJECT_ID>1997-048A</OBJECT_ID><CENTER_NAME>EARTH</CENTER_NAME><REF_FRAME>TEME</REF_FRAME><TIME_SYSTEM>UTC</TIME_SYSTEM><MEAN_ELEMENT_THEORY>SGP4</MEAN_ELEMENT_THEORY></metadata><data><meanElements><EPOCH>2024-06-23T20:36:19.072512</EPOCH><MEAN_MOTION>14.86253339</MEAN_MOTION><ECCENTRICITY>.0006209</ECCENTRICITY><INCLINATION>86.3343</INCLINATION><RA_OF_ASC_NODE>300.9055</RA_OF_ASC_NODE><ARG_OF_PERICENTER>356.9673</ARG_OF_PERICENTER><MEAN_ANOMALY>3.1513</MEAN_ANOMALY></meanElements><tleParameters><EPHEMERIS_TYPE>0</EPHEMERIS_TYPE><CLASSIFICATION_TYPE>U</CLASSIFICATION_TYPE><NORAD_CAT_ID>24925</NORAD_CAT_ID><ELEMENT_SET_NO>999</ELEMENT_SET_NO><REV_AT_EPOCH>45189</REV_AT_EPOCH><BSTAR>.60459E-4</BSTAR><MEAN_MOTION_DOT>.559E-5</MEAN_MOTION_DOT><MEAN_MOTION_DDOT>0</MEAN_MOTION_DDOT></tleParameters></data></segment></body></omm>
<omm id="CCSDS_OMM_VERS" version="2.0">
<header><CREATION_DATE/><ORIGINATOR/></header><body><segment><metadata><OBJECT_NAME>IRIDIUM 29</OBJECT_NAME><OBJECT_ID>1997-051A</OBJECT_ID><CENTER_NAME>EARTH</CENTER_NAME><REF_FRAME>TEME</REF_FRAME><TIME_SYSTEM>UTC</TIME_SYSTEM><MEAN_ELEMENT_THEORY>SGP4</MEAN_ELEMENT_THEORY></metadata><data><meanElements><EPOCH>2024-06-23T20:51:23.140512</EPOCH><MEAN_MOTION>14.35745732</MEAN_MOTION><ECCENTRICITY>.000211</ECCENTRICITY><INCLINATION>86.3951</INCLINATION><RA_OF_ASC_NODE>294.1020</RA_OF_ASC_NODE><ARG_OF_PERICENTER>87.2965</ARG_OF_PERICENTER><MEAN_ANOMALY>272.8473</MEAN_ANOMALY></meanElements><tleParameters><EPHEMERIS_TYPE>0</EPHEMERIS_TYPE><CLASSIFICATION_TYPE>U</CLASSIFICATION_TYPE><NORAD_CAT_ID>24944</NORAD_CAT_ID><ELEMENT_SET_NO>999</ELEMENT_SET_NO><REV_AT_EPOCH>40184</REV_AT_EPOCH><BSTAR>.16584E-3</BSTAR><MEAN_MOTION_DOT>.499E-5</MEAN_MOTION_DOT><MEAN_MOTION_DDOT>0</MEAN_MOTION_DDOT></tleParameters></data></segment></body></omm>
<omm id="CCSDS_OMM_VERS" version="2.0">
<header><CREATION_DATE/><ORIGINATOR/></header><body><segment><metadata><OBJECT_NAME>IRIDIUM 33</OBJECT_NAME><OBJECT_ID>1997-051C</OBJECT_ID><CENTER_NAME>EARTH</CENTER_NAME><REF_FRAME>TEME</REF_FRAME><TIME_SYSTEM>UTC</TIME_SYSTEM><MEAN_ELEMENT_THEORY>SGP4</MEAN_ELEMENT_THEORY></metadata><data><meanElements><EPOCH>2024-06-23T19:58:29.657280</EPOCH><MEAN_MOTION>14.34395482</MEAN_MOTION><ECCENTRICITY>.0008726</ECCENTRICITY><INCLINATION>86.3867</INCLINATION><RA_OF_ASC_NODE>293.3683</RA_OF_ASC_NODE><ARG_OF_PERICENTER>154.4522</ARG_OF_PERICENTER><MEAN_ANOMALY>205.7107</MEAN_ANOMALY></meanElements><tleParameters><EPHEMERIS_TYPE>0</EPHEMERIS_TYPE><CLASSIFICATION_TYPE>U</CLASSIFICATION_TYPE><NORAD_CAT_ID>24946</NORAD_CAT_ID><ELEMENT_SET_NO>999</ELEMENT_SET_NO><REV_AT_EPOCH>40136</REV_AT_EPOCH><BSTAR>.14044E-3</BSTAR><MEAN_MOTION_DOT>.415E-5</MEAN_MOTION_DOT><MEAN_MOTION_DDOT>0</MEAN_MOTION_DDOT></tleParameters></data></segment></body></omm>
<omm id="CCSDS_OMM_VERS" version="2.0">
<header><CREATION_DATE/><ORIGINATOR/></header><body><segment><metadata><OBJECT_NAME>IRIDIUM 28</OBJECT_NAME><OBJECT_ID>1997-051E</OBJECT_ID><CENTER_NAME>EARTH</CENTER_NAME><REF_FRAME>TEME</REF_FRAME><TIME_SYSTEM>UTC</TIME_SYSTEM><MEAN_ELEMENT_THEORY>SGP4</MEAN_ELEMENT_THEORY></metadata><data><meanElements><EPOCH>2024-06-23T20:50:37.719168</EPOCH><MEAN_MOTION>14.36699331</MEAN_MOTION><ECCENTRICITY>.0002224</ECCENTRICITY><INCLINATION>86.3957</INCLINATION><RA_OF_ASC_NODE>291.8214</RA_OF_ASC_NODE><ARG_OF_PERICENTER>105.0219</ARG_OF_PERICENTER><MEAN_ANOMALY>255.1224</MEAN_ANOMALY></meanElements><tleParameters><EPHEMERIS_TYPE>0</EPHEMERIS_TYPE><CLASSIFICATION_TYPE>U</CLASSIFICATION_TYPE><NORAD_CAT_ID>24948</NORAD_CAT_ID><ELEMENT_SET_NO>999</ELEMENT_SET_NO><REV_AT_EPOCH>40245</REV_AT_EPOCH><BSTAR>.15325E-3</BSTAR><MEAN_MOTION_DOT>.471E-5</MEAN_MOTION_DOT><MEAN_MOTION_DDOT>0</MEAN_MOTION_DDOT></tleParameters></data></segment></body></omm>

</ndm>
