IRIDIUM 921             
1 24873U 97034E   24175.81903959  .00028301  00000+0  71067-3 0  9997
2 24873  86.3815 284.8289 0004140 197.8336 162.2773 15.39851503476201
IRIDIUM 26              
1 24903U 97043A   24176.22540968  .00000461  00000+0  15085-3 0  9999
2 24903  86.3956 260.8008 0002164  99.8644 260.2798 14.36409365405817
IRIDIUM 22              
1 24907U 97043E   24175.79850807  .00000466  00000+0  15581-3 0  9996
2 24907  86.3959 264.2228 0002207  93.8431 266.3017 14.35297206405350
DUMMY MASS 1            
1 24925U 97048A   24175.85855408  .00000559  00000+0  60459-4 0  9998
2 24925  86.3343 300.9055 0006209 356.9673   3.1513 14.86253339451893
IRIDIUM 29              
1 24944U 97051A   24175.86901783  .00000499  00000+0  16584-3 0  9994
2 24944  86.3951 294.1020 0002110  87.2965 272.8473 14.35745732401847
IRIDIUM 33              
1 24946U 97051C   24175.83228770  .00000415  00000+0  14044-3 0  9998
2 24946  86.3867 293.3683 0008726 154.4522 205.7107 14.34395482401364
IRIDIUM 28              
1 24948U 97051E   24175.86849212  .00000471  00000+0  15325-3 0  9998
2 24948  86.3957 291.8214 0002224 105.0219 255.1224 14.36699331402453
